[
    {
        "Altitude(m)": 707211.3503568909,
        "Argument of Periapsis(deg)": 0.0011390121186627068,
        "Eccentricity": 0.0,
        "Inclination(deg)": 45.0,
        "Latitude(deg)": 44.724585099865095,
        "Longitude(deg)": -9.94893039479359,
        "Mean Anomaly(deg)": 82.9715216647481,
        "RAAN(deg)": 9.998924805854179,
        "Satellite Name": "Constellation 1 49",
        "Satellite Number": 49,
        "Semi-Major Axis(m)": 7083131.272910544,
        "Time(s)": 19
    },
    {
        "Altitude(m)": 707213.0219014436,
        "Argument of Periapsis(deg)": 0.0011989601249081123,
        "Eccentricity": 0.0,
        "Inclination(deg)": 45.0,
        "Latitude(deg)": 44.73194835042296,
        "Longitude(deg)": -9.868405491108843,
        "Mean Anomaly(deg)": 83.032222804998,
        "RAAN(deg)": 9.99886821668861,
        "Satellite Name": "Constellation 1 49",
        "Satellite Number": 49,
        "Semi-Major Axis(m)": 7083131.272910544,
        "Time(s)": 20
    },
    {
        "Altitude(m)": 707214.6793672336,
        "Argument of Periapsis(deg)": 0.001258908131153518,
        "Eccentricity": 0.0,
        "Inclination(deg)": 45.0,
        "Latitude(deg)": 44.73924888401571,
        "Longitude(deg)": -9.787859213823447,
        "Mean Anomaly(deg)": 83.09292394524789,
        "RAAN(deg)": 9.998811627523041,
        "Satellite Name": "Constellation 1 49",
        "Satellite Number": 49,
        "Semi-Major Axis(m)": 7083131.272910544,
        "Time(s)": 21
    },
    {
        "Altitude(m)": 707216.3227445821,
        "Argument of Periapsis(deg)": 0.0013188561373989236,
        "Eccentricity": 0.0,
        "Inclination(deg)": 45.0,
        "Latitude(deg)": 44.74648666917401,
        "Longitude(deg)": -9.707291903159811,
        "Mean Anomaly(deg)": 83.1536250854978,
        "RAAN(deg)": 9.998755038357471,
        "Satellite Name": "Constellation 1 49",
        "Satellite Number": 49,
        "Semi-Major Axis(m)": 7083131.272910544,
        "Time(s)": 22
    },
    {
        "Altitude(m)": 707217.9520238991,
        "Argument of Periapsis(deg)": 0.0013788041436443293,
        "Eccentricity": 0.0,
        "Inclination(deg)": 45.0,
        "Latitude(deg)": 44.75366167468028,
        "Longitude(deg)": -9.626703395411575,
        "Mean Anomaly(deg)": 83.2143262257477,
        "RAAN(deg)": 9.9986984491919,
        "Satellite Name": "Constellation 1 49",
        "Satellite Number": 49,
        "Semi-Major Axis(m)": 7083131.272910544,
        "Time(s)": 23
    },
    {
        "Altitude(m)": 707219.567195674,
        "Argument of Periapsis(deg)": 0.001438752149889735,
        "Eccentricity": 0.0,
        "Inclination(deg)": 45.0,
        "Latitude(deg)": 44.7607738695675,
        "Longitude(deg)": -9.546094031522387,
        "Mean Anomaly(deg)": 83.27502736599759,
        "RAAN(deg)": 9.998641860026332,
        "Satellite Name": "Constellation 1 49",
        "Satellite Number": 49,
        "Semi-Major Axis(m)": 7083131.272910544,
        "Time(s)": 24
    },
    {
        "Altitude(m)": 707221.1682504816,
        "Argument of Periapsis(deg)": 0.0014987001561351404,
        "Eccentricity": 0.0,
        "Inclination(deg)": 45.0,
        "Latitude(deg)": 44.76782322312114,
        "Longitude(deg)": -9.46546398469595,
        "Mean Anomaly(deg)": 83.33572850624749,
        "RAAN(deg)": 9.998585270860762,
        "Satellite Name": "Constellation 1 49",
        "Satellite Number": 49,
        "Semi-Major Axis(m)": 7083131.272910544,
        "Time(s)": 25
    },
    {
        "Altitude(m)": 707222.755178975,
        "Argument of Periapsis(deg)": 0.001558648162380546,
        "Eccentricity": 0.0,
        "Inclination(deg)": 45.0,
        "Latitude(deg)": 44.774809704879296,
        "Longitude(deg)": -9.384813428489862,
        "Mean Anomaly(deg)": 83.3964296464974,
        "RAAN(deg)": 9.998528681695193,
        "Satellite Name": "Constellation 1 49",
        "Satellite Number": 49,
        "Semi-Major Axis(m)": 7083131.272910544,
        "Time(s)": 26
    },
    {
        "Altitude(m)": 707224.3279718978,
        "Argument of Periapsis(deg)": 0.0016185961686259519,
        "Eccentricity": 0.0,
        "Inclination(deg)": 45.0,
        "Latitude(deg)": 44.78173328463351,
        "Longitude(deg)": -9.30414253681345,
        "Mean Anomaly(deg)": 83.45713078674729,
        "RAAN(deg)": 9.998472092529624,
        "Satellite Name": "Constellation 1 49",
        "Satellite Number": 49,
        "Semi-Major Axis(m)": 7083131.272910544,
        "Time(s)": 27
    },
    {
        "Altitude(m)": 707225.8866200714,
        "Argument of Periapsis(deg)": 0.0016785441748713573,
        "Eccentricity": 0.0,
        "Inclination(deg)": 45.0,
        "Latitude(deg)": 44.788593932429265,
        "Longitude(deg)": -9.223451483924672,
        "Mean Anomaly(deg)": 83.51783192699719,
        "RAAN(deg)": 9.998415503364054,
        "Satellite Name": "Constellation 1 49",
        "Satellite Number": 49,
        "Semi-Major Axis(m)": 7083131.272910544,
        "Time(s)": 28
    },
    {
        "Altitude(m)": 707227.4311144042,
        "Argument of Periapsis(deg)": 0.001738492181116763,
        "Eccentricity": 0.0,
        "Inclination(deg)": 45.0,
        "Latitude(deg)": 44.795391618566505,
        "Longitude(deg)": -9.142740444427755,
        "Mean Anomaly(deg)": 83.5785330672471,
        "RAAN(deg)": 9.998358914198484,
        "Satellite Name": "Constellation 1 49",
        "Satellite Number": 49,
        "Semi-Major Axis(m)": 7083131.272910544,
        "Time(s)": 29
    },
    {
        "Altitude(m)": 707228.9614458854,
        "Argument of Periapsis(deg)": 0.0017984401873621684,
        "Eccentricity": 0.0,
        "Inclination(deg)": 45.0,
        "Latitude(deg)": 44.80212631360019,
        "Longitude(deg)": -9.062009761367367,
        "Mean Anomaly(deg)": 83.63923420749698,
        "RAAN(deg)": 9.998302325032915,
        "Satellite Name": "Constellation 1 49",
        "Satellite Number": 49,
        "Semi-Major Axis(m)": 7083131.272910544,
        "Time(s)": 30
    },
    {
        "Altitude(m)": 707230.4776055873,
        "Argument of Periapsis(deg)": 0.0018583881936075745,
        "Eccentricity": 0.0,
        "Inclination(deg)": 45.0,
        "Latitude(deg)": 44.80879798834185,
        "Longitude(deg)": -8.981259273837884,
        "Mean Anomaly(deg)": 83.69993534774689,
        "RAAN(deg)": 9.998245735867346,
        "Satellite Name": "Constellation 1 49",
        "Satellite Number": 49,
        "Semi-Major Axis(m)": 7083131.272910544,
        "Time(s)": 31
    },
    {
        "Altitude(m)": 707231.979584665,
        "Argument of Periapsis(deg)": 0.0019183361998529795,
        "Eccentricity": 0.0,
        "Inclination(deg)": 45.0,
        "Latitude(deg)": 44.815406613858435,
        "Longitude(deg)": -8.900489325562805,
        "Mean Anomaly(deg)": 83.76063648799679,
        "RAAN(deg)": 9.998189146701776,
        "Satellite Name": "Constellation 1 49",
        "Satellite Number": 49,
        "Semi-Major Axis(m)": 7083131.272910544,
        "Time(s)": 32
    },
    {
        "Altitude(m)": 707233.4673743609,
        "Argument of Periapsis(deg)": 0.0019782842060983856,
        "Eccentricity": 0.0,
        "Inclination(deg)": 45.0,
        "Latitude(deg)": 44.821952161474236,
        "Longitude(deg)": -8.819700092503824,
        "Mean Anomaly(deg)": 83.82133762824668,
        "RAAN(deg)": 9.998132557536206,
        "Satellite Name": "Constellation 1 49",
        "Satellite Number": 49,
        "Semi-Major Axis(m)": 7083131.272910544,
        "Time(s)": 33
    },
    {
        "Altitude(m)": 707234.9409659965,
        "Argument of Periapsis(deg)": 0.0020382322123437906,
        "Eccentricity": 0.0,
        "Inclination(deg)": 45.0,
        "Latitude(deg)": 44.82843460277098,
        "Longitude(deg)": -8.73889175095526,
        "Mean Anomaly(deg)": 83.88203876849659,
        "RAAN(deg)": 9.998075968370637,
        "Satellite Name": "Constellation 1 49",
        "Satellite Number": 49,
        "Semi-Major Axis(m)": 7083131.272910544,
        "Time(s)": 34
    },
    {
        "Altitude(m)": 707236.4003509786,
        "Argument of Periapsis(deg)": 0.002098180218589197,
        "Eccentricity": 0.0,
        "Inclination(deg)": 45.0,
        "Latitude(deg)": 44.83485390958852,
        "Longitude(deg)": -8.65806447754137,
        "Mean Anomaly(deg)": 83.94273990874649,
        "RAAN(deg)": 9.998019379205067,
        "Satellite Name": "Constellation 1 49",
        "Satellite Number": 49,
        "Semi-Major Axis(m)": 7083131.272910544,
        "Time(s)": 35
    },
    {
        "Altitude(m)": 707237.8455208002,
        "Argument of Periapsis(deg)": 0.002158128224834602,
        "Eccentricity": 0.0,
        "Inclination(deg)": 45.0,
        "Latitude(deg)": 44.841210054025375,
        "Longitude(deg)": -8.577218449213207,
        "Mean Anomaly(deg)": 84.00344104899638,
        "RAAN(deg)": 9.997962790039498,
        "Satellite Name": "Constellation 1 49",
        "Satellite Number": 49,
        "Semi-Major Axis(m)": 7083131.272910544,
        "Time(s)": 36
    },
    {
        "Altitude(m)": 707239.2764670302,
        "Argument of Periapsis(deg)": 0.002218076231080008,
        "Eccentricity": 0.0,
        "Inclination(deg)": 45.0,
        "Latitude(deg)": 44.847503008439,
        "Longitude(deg)": -8.496354011343293,
        "Mean Anomaly(deg)": 84.06414218924628,
        "RAAN(deg)": 9.99790620087393,
        "Satellite Name": "Constellation 1 49",
        "Satellite Number": 49,
        "Semi-Major Axis(m)": 7083131.272910544,
        "Time(s)": 37
    }
]